{
  "type": "FeatureCollection",
  "features": [
    {
      "type": "Feature",
      "properties": {
        "norad_id": 66470,
        "name": "STARLINK-35655",
        "group": "last-30-days",
        "lat": -15.173509181383485,
        "lon": 80.92928476720327,
        "alt_km": 416.10115761210636,
        "timestamp": "2025-12-08T03:50:05.783079+00:00",
        "meta_object_name": "STARLINK-35655",
        "meta_object_id": "2025-262Q",
        "meta_epoch": "2025-12-07T06:00:04.999968",
        "meta_mean_motion": 15.50530844,
        "meta_eccentricity": 0.00015194,
        "meta_inclination": 43.0007,
        "meta_ra_of_asc_node": 103.1708,
        "meta_arg_of_pericenter": 269.2838,
        "meta_mean_anomaly": 24.0228,
        "meta_ephemeris_type": 0,
        "meta_classification_type": "U",
        "meta_norad_cat_id": 66470,
        "meta_element_set_no": 999,
        "meta_rev_at_epoch": 475,
        "meta_bstar": 0.00032949558,
        "meta_mean_motion_dot": 0.00019002,
        "meta_mean_motion_ddot": 0,
        "tle_line1": "1 66470U 25262Q   25341.25005787  .00019002  00000+0  32950-3 0  9992",
        "tle_line2": "2 66470  43.0007 103.1708 0001519 269.2838  24.0228 15.50530844  4752"
      },
      "geometry": {
        "type": "Point",
        "coordinates": [
          80.92928476720327,
          -15.173509181383485
        ]
      }
    },
    {
      "type": "Feature",
      "properties": {
        "norad_id": 66471,
        "name": "STARLINK-35569",
        "group": "last-30-days",
        "lat": -13.862868790183796,
        "lon": 82.48620417884925,
        "alt_km": 415.7740408777745,
        "timestamp": "2025-12-08T03:50:05.783089+00:00",
        "meta_object_name": "STARLINK-35569",
        "meta_object_id": "2025-262R",
        "meta_epoch": "2025-12-07T06:00:04.999968",
        "meta_mean_motion": 15.50477239,
        "meta_eccentricity": 0.00013099,
        "meta_inclination": 43.0006,
        "meta_ra_of_asc_node": 103.1657,
        "meta_arg_of_pericenter": 259.2375,
        "meta_mean_anomaly": 35.9134,
        "meta_ephemeris_type": 0,
        "meta_classification_type": "U",
        "meta_norad_cat_id": 66471,
        "meta_element_set_no": 999,
        "meta_rev_at_epoch": 475,
        "meta_bstar": 0.0022450642,
        "meta_mean_motion_dot": 0.00133145,
        "meta_mean_motion_ddot": 0,
        "tle_line1": "1 66471U 25262R   25341.25005787  .00133145  00000+0  22451-2 0  9992",
        "tle_line2": "2 66471  43.0006 103.1657 0001309 259.2375  35.9134 15.50477239  4752"
      },
      "geometry": {
        "type": "Point",
        "coordinates": [
          82.48620417884925,
          -13.862868790183796
        ]
      }
    },
    {
      "type": "Feature",
      "properties": {
        "norad_id": 66472,
        "name": "STARLINK-35567",
        "group": "last-30-days",
        "lat": -11.422657508927692,
        "lon": 85.3116660688917,
        "alt_km": 416.1657840092712,
        "timestamp": "2025-12-08T03:50:05.783100+00:00",
        "meta_object_name": "STARLINK-35567",
        "meta_object_id": "2025-262S",
        "meta_epoch": "2025-12-07T06:00:04.999968",
        "meta_mean_motion": 15.50583869,
        "meta_eccentricity": 0.00014838,
        "meta_inclination": 43.0006,
        "meta_ra_of_asc_node": 103.1561,
        "meta_arg_of_pericenter": 260.1028,
        "meta_mean_anomaly": 38.9166,
        "meta_ephemeris_type": 0,
        "meta_classification_type": "U",
        "meta_norad_cat_id": 66472,
        "meta_element_set_no": 999,
        "meta_rev_at_epoch": 475,
        "meta_bstar": -0.00079244062,
        "meta_mean_motion_dot": -0.00046563,
        "meta_mean_motion_ddot": 0,
        "tle_line1": "1 66472U 25262S   25341.25005787 -.00046563  00000+0 -79244-3 0  9995",
        "tle_line2": "2 66472  43.0006 103.1561 0001483 260.1028  38.9166 15.50583869  4751"
      },
      "geometry": {
        "type": "Point",
        "coordinates": [
          85.3116660688917,
          -11.422657508927692
        ]
      }
    },
    {
      "type": "Feature",
      "properties": {
        "norad_id": 66473,
        "name": "STARLINK-35568",
        "group": "last-30-days",
        "lat": -10.143533734831975,
        "lon": 86.76008629986758,
        "alt_km": 416.0725371338449,
        "timestamp": "2025-12-08T03:50:05.783109+00:00",
        "meta_object_name": "STARLINK-35568",
        "meta_object_id": "2025-262T",
        "meta_epoch": "2025-12-07T06:00:04.999968",
        "meta_mean_motion": 15.5058736,
        "meta_eccentricity": 0.00014911,
        "meta_inclination": 43.0006,
        "meta_ra_of_asc_node": 103.1513,
        "meta_arg_of_pericenter": 259.7221,
        "meta_mean_anomaly": 41.2117,
        "meta_ephemeris_type": 0,
        "meta_classification_type": "U",
        "meta_norad_cat_id": 66473,
        "meta_element_set_no": 999,
        "meta_rev_at_epoch": 475,
        "meta_bstar": -0.00084225622,
        "meta_mean_motion_dot": -0.00049456,
        "meta_mean_motion_ddot": 0,
        "tle_line1": "1 66473U 25262T   25341.25005787 -.00049456  00000+0 -84226-3 0  9996",
        "tle_line2": "2 66473  43.0006 103.1513 0001491 259.7221  41.2117 15.50587360  4750"
      },
      "geometry": {
        "type": "Point",
        "coordinates": [
          86.76008629986758,
          -10.143533734831975
        ]
      }
    },
    {
      "type": "Feature",
      "properties": {
        "norad_id": 66474,
        "name": "STARLINK-35620",
        "group": "last-30-days",
        "lat": -8.835954077385052,
        "lon": 88.22115503194142,
        "alt_km": 415.9215652984085,
        "timestamp": "2025-12-08T03:50:05.783120+00:00",
        "meta_object_name": "STARLINK-35620",
        "meta_object_id": "2025-262U",
        "meta_epoch": "2025-12-07T06:00:04.999968",
        "meta_mean_motion": 15.50569466,
        "meta_eccentricity": 0.00015077,
        "meta_inclination": 43.0007,
        "meta_ra_of_asc_node": 103.1461,
        "meta_arg_of_pericenter": 256.4323,
        "meta_mean_anomaly": 46.4253,
        "meta_ephemeris_type": 0,
        "meta_classification_type": "U",
        "meta_norad_cat_id": 66474,
        "meta_element_set_no": 999,
        "meta_rev_at_epoch": 475,
        "meta_bstar": -0.00035722076,
        "meta_mean_motion_dot": -0.00021234,
        "meta_mean_motion_ddot": 0,
        "tle_line1": "1 66474U 25262U   25341.25005787 -.00021234  00000+0 -35722-3 0  9998",
        "tle_line2": "2 66474  43.0007 103.1461 0001507 256.4323  46.4253 15.50569466  4754"
      },
      "geometry": {
        "type": "Point",
        "coordinates": [
          88.22115503194142,
          -8.835954077385052
        ]
      }
    },
    {
      "type": "Feature",
      "properties": {
        "norad_id": 66475,
        "name": "STARLINK-35538",
        "group": "last-30-days",
        "lat": -7.582447414764077,
        "lon": 89.60728281123366,
        "alt_km": 415.9904454311609,
        "timestamp": "2025-12-08T03:50:05.783130+00:00",
        "meta_object_name": "STARLINK-35538",
        "meta_object_id": "2025-262V",
        "meta_epoch": "2025-12-07T06:00:04.999968",
        "meta_mean_motion": 15.50593994,
        "meta_eccentricity": 0.0001592,
        "meta_inclination": 43.0007,
        "meta_ra_of_asc_node": 103.1421,
        "meta_arg_of_pericenter": 255.411,
        "meta_mean_anomaly": 49.3574,
        "meta_ephemeris_type": 0,
        "meta_classification_type": "U",
        "meta_norad_cat_id": 66475,
        "meta_element_set_no": 999,
        "meta_rev_at_epoch": 475,
        "meta_bstar": -0.0011055763,
        "meta_mean_motion_dot": -0.00064702,
        "meta_mean_motion_ddot": 0,
        "tle_line1": "1 66475U 25262V   25341.25005787 -.00064702  00000+0 -11056-2 0  9999",
        "tle_line2": "2 66475  43.0007 103.1421 0001592 255.4110  49.3574 15.50593994  4759"
      },
      "geometry": {
        "type": "Point",
        "coordinates": [
          89.60728281123366,
          -7.582447414764077
        ]
      }
    },
    {
      "type": "Feature",
      "properties": {
        "norad_id": 66476,
        "name": "STARLINK-35372",
        "group": "last-30-days",
        "lat": -6.252230176435507,
        "lon": 91.06315734836883,
        "alt_km": 415.66675080468576,
        "timestamp": "2025-12-08T03:50:05.783140+00:00",
        "meta_object_name": "STARLINK-35372",
        "meta_object_id": "2025-262W",
        "meta_epoch": "2025-12-07T06:00:04.999968",
        "meta_mean_motion": 15.50571052,
        "meta_eccentricity": 0.00016993,
        "meta_inclination": 43.0006,
        "meta_ra_of_asc_node": 103.1371,
        "meta_arg_of_pericenter": 257.9491,
        "meta_mean_anomaly": 48.7376,
        "meta_ephemeris_type": 0,
        "meta_classification_type": "U",
        "meta_norad_cat_id": 66476,
        "meta_element_set_no": 999,
        "meta_rev_at_epoch": 464,
        "meta_bstar": -0.00039576964,
        "meta_mean_motion_dot": -0.00023484,
        "meta_mean_motion_ddot": 0,
        "tle_line1": "1 66476U 25262W   25341.25005787 -.00023484  00000+0 -39577-3 0  9991",
        "tle_line2": "2 66476  43.0006 103.1371 0001699 257.9491  48.7376 15.50571052  4642"
      },
      "geometry": {
        "type": "Point",
        "coordinates": [
          91.06315734836883,
          -6.252230176435507
        ]
      }
    }
  ]
}